[{"OBJECT_NAME":"HAWK-A","OBJECT_ID":"2018-099H","EPOCH":"2026-03-09T16:13:51.062880","MEAN_MOTION":15.23231043,"ECCENTRICITY":0.00342596,"INCLINATION":97.4051,"RA_OF_ASC_NODE":122.2425,"ARG_OF_PERICENTER":275.5523,"MEAN_ANOMALY":84.1807,"EPHEMERIS_TYPE":0,"CLASSIFICATION_TYPE":"U","NORAD_CAT_ID":43765,"ELEMENT_SET_NO":999,"REV_AT_EPOCH":39794,"BSTAR":0.00036104215,"MEAN_MOTION_DOT":8.617e-5,"MEAN_MOTION_DDOT":0},{"OBJECT_NAME":"STARLINK-31690","OBJECT_ID":"2024-076T","EPOCH":"2026-03-09T03:50:02.129568","MEAN_MOTION":15.27566842,"ECCENTRICITY":0.00010797,"INCLINATION":43.0064,"RA_OF_ASC_NODE":11.8152,"ARG_OF_PERICENTER":265.0084,"MEAN_ANOMALY":95.0645,"EPHEMERIS_TYPE":0,"CLASSIFICATION_TYPE":"U","NORAD_CAT_ID":59581,"ELEMENT_SET_NO":999,"REV_AT_EPOCH":10643,"BSTAR":-6.8074551e-5,"MEAN_MOTION_DOT":-2.134e-5,"MEAN_MOTION_DDOT":0}]
